start=new Date('2022-12-11T00:00:00.000Z').valueOf();
sats=[{"OBJECT_TYPE":"PAYLOAD","RCS_SIZE":"LARGE","CENTER_NAME":"EARTH","EPHEMERIS_TYPE":"0","OBJECT_ID":"2022-001AY","OBJECT_NAME":"STARLINK-3311","SITE":"AFETR","TLE_LINE2":"2 50849  53.2191  99.0598 0002848  38.8938 321.2259 15.08831898 51360","MEAN_MOTION_DDOT":"0.0000000000000","APOAPSIS":"541.740","ELEMENT_SET_NO":"999","EPOCH":"2022-12-10T15:12:40.584384","COUNTRY_CODE":"US","NORAD_CAT_ID":"50849","FILE":"3688965","MEAN_MOTION_DOT":"-0.00002072","MEAN_ELEMENT_THEORY":"SGP4","REV_AT_EPOCH":"5136","MEAN_ANOMALY":"321.2259","PERIAPSIS":"537.800","PERIOD":"95.438","TLE_LINE1":"1 50849U 22001AY  22344.63380306 -.00002072  00000-0 -11211-3 0  9997","ARG_OF_PERICENTER":"38.8938","ECCENTRICITY":"0.00028480","INCLINATION":"53.2191","DECAY_DATE":null,"GP_ID":"219977245","CLASSIFICATION_TYPE":"U","BSTAR":"-0.00011211000000","MEAN_MOTION":"15.08831898","RA_OF_ASC_NODE":"99.0598","REF_FRAME":"TEME","LAUNCH_DATE":"2022-01-06","SEMIMAJOR_AXIS":"6917.905","TIME_SYSTEM":"UTC"},{"BSTAR":"-0.00016698000000","CLASSIFICATION_TYPE":"U","GP_ID":"219934409","DECAY_DATE":null,"INCLINATION":"53.2205","TIME_SYSTEM":"UTC","SEMIMAJOR_AXIS":"6917.888","LAUNCH_DATE":"2022-01-06","REF_FRAME":"TEME","MEAN_MOTION":"15.08837481","RA_OF_ASC_NODE":"59.6260","PERIAPSIS":"538.163","MEAN_ANOMALY":"324.5531","REV_AT_EPOCH":"5244","MEAN_ELEMENT_THEORY":"SGP4","NORAD_CAT_ID":"50850","FILE":"3688140","MEAN_MOTION_DOT":"-0.00002945","ECCENTRICITY":"0.00022990","ARG_OF_PERICENTER":"35.5614","PERIOD":"95.438","TLE_LINE1":"1 50850U 22001AZ  22344.50499984 -.00002945  00000-0 -16698-3 0  9991","TLE_LINE2":"2 50850  53.2205  59.6260 0002299  35.5614 324.5531 15.08837481 52444","SITE":"AFETR","OBJECT_NAME":"STARLINK-3312","OBJECT_ID":"2022-001AZ","COUNTRY_CODE":"US","EPOCH":"2022-12-10T12:07:11.986176","ELEMENT_SET_NO":"999","APOAPSIS":"541.344","MEAN_MOTION_DDOT":"0.0000000000000","RCS_SIZE":"LARGE","OBJECT_TYPE":"PAYLOAD","EPHEMERIS_TYPE":"0","CENTER_NAME":"EARTH"},{"PERIOD":"95.437","TLE_LINE1":"1 50851U 22001BA  22344.61907846  .00001583  00000-0  11755-3 0  9999","ARG_OF_PERICENTER":"43.3618","ECCENTRICITY":"0.00019410","FILE":"3688043","NORAD_CAT_ID":"50851","MEAN_MOTION_DOT":"0.00001583","MEAN_ELEMENT_THEORY":"SGP4","REV_AT_EPOCH":"5264","MEAN_ANOMALY":"316.7527","PERIAPSIS":"538.386","RA_OF_ASC_NODE":"99.1232","MEAN_MOTION":"15.08845330","REF_FRAME":"TEME","LAUNCH_DATE":"2022-01-06","SEMIMAJOR_AXIS":"6917.864","TIME_SYSTEM":"UTC","INCLINATION":"53.2184","DECAY_DATE":null,"GP_ID":"219909056","BSTAR":"0.00011755000000","CLASSIFICATION_TYPE":"U","CENTER_NAME":"EARTH","EPHEMERIS_TYPE":"0","OBJECT_TYPE":"PAYLOAD","RCS_SIZE":"LARGE","MEAN_MOTION_DDOT":"0.0000000000000","APOAPSIS":"541.072","ELEMENT_SET_NO":"999","EPOCH":"2022-12-10T14:51:28.378944","COUNTRY_CODE":"US","OBJECT_ID":"2022-001BA","SITE":"AFETR","OBJECT_NAME":"STARLINK-3314","TLE_LINE2":"2 50851  53.2184  99.1232 0001941  43.3618 316.7527 15.08845330 52645"},{"ECCENTRICITY":"0.00028630","TLE_LINE1":"1 51104U 22005A   22344.83712153 -.00000697  00000-0 -25653-4 0  9994","PERIOD":"95.438","ARG_OF_PERICENTER":"36.1774","REV_AT_EPOCH":"5000","PERIAPSIS":"537.768","MEAN_ANOMALY":"323.9411","FILE":"3688965","MEAN_MOTION_DOT":"-0.00000697","NORAD_CAT_ID":"51104","MEAN_ELEMENT_THEORY":"SGP4","LAUNCH_DATE":"2022-01-19","SEMIMAJOR_AXIS":"6917.883","TIME_SYSTEM":"UTC","MEAN_MOTION":"15.08839006","RA_OF_ASC_NODE":"208.1384","REF_FRAME":"TEME","INCLINATION":"53.2171","DECAY_DATE":null,"GP_ID":"219977764","BSTAR":"-0.00002565300000","CLASSIFICATION_TYPE":"U","EPHEMERIS_TYPE":"0","CENTER_NAME":"EARTH","RCS_SIZE":"LARGE","OBJECT_TYPE":"PAYLOAD","EPOCH":"2022-12-10T20:05:27.300192","COUNTRY_CODE":"US","MEAN_MOTION_DDOT":"0.0000000000000","APOAPSIS":"541.729","ELEMENT_SET_NO":"999","TLE_LINE2":"2 51104  53.2171 208.1384 0002863  36.1774 323.9411 15.08839006 50003","OBJECT_ID":"2022-005A","OBJECT_NAME":"STARLINK-3366","SITE":"AFETR"},{"EPHEMERIS_TYPE":"0","CENTER_NAME":"EARTH","RCS_SIZE":"LARGE","OBJECT_TYPE":"PAYLOAD","EPOCH":"2022-12-10T19:28:21.897984","COUNTRY_CODE":"US","APOAPSIS":"541.535","MEAN_MOTION_DDOT":"0.0000000000000","ELEMENT_SET_NO":"999","TLE_LINE2":"2 51105  53.2168 208.2599 0002558  33.7336 326.3819 15.08833399 50005","OBJECT_NAME":"STARLINK-3350","SITE":"AFETR","OBJECT_ID":"2022-005B","ECCENTRICITY":"0.00025580","TLE_LINE1":"1 51105U 22005B   22344.81136456 -.00002005  00000-0 -10789-3 0  9997","PERIOD":"95.438","ARG_OF_PERICENTER":"33.7336","REV_AT_EPOCH":"5000","PERIAPSIS":"537.996","MEAN_ANOMALY":"326.3819","MEAN_ELEMENT_THEORY":"SGP4","MEAN_MOTION_DOT":"-0.00002005","FILE":"3688965","NORAD_CAT_ID":"51105","SEMIMAJOR_AXIS":"6917.901","LAUNCH_DATE":"2022-01-19","TIME_SYSTEM":"UTC","REF_FRAME":"TEME","MEAN_MOTION":"15.08833399","RA_OF_ASC_NODE":"208.2599","DECAY_DATE":null,"INCLINATION":"53.2168","CLASSIFICATION_TYPE":"U","BSTAR":"-0.00010789000000","GP_ID":"219978015"},{"CLASSIFICATION_TYPE":"U","BSTAR":"-0.00004157000000","GP_ID":"219952476","DECAY_DATE":null,"INCLINATION":"53.2163","TIME_SYSTEM":"UTC","SEMIMAJOR_AXIS":"6917.896","LAUNCH_DATE":"2022-01-19","REF_FRAME":"TEME","MEAN_MOTION":"15.08834880","RA_OF_ASC_NODE":"208.0350","MEAN_ANOMALY":"321.8235","PERIAPSIS":"537.272","REV_AT_EPOCH":"5111","MEAN_ELEMENT_THEORY":"SGP4","FILE":"3688866","MEAN_MOTION_DOT":"-0.00000950","NORAD_CAT_ID":"51106","ECCENTRICITY":"0.00035980","ARG_OF_PERICENTER":"38.3012","PERIOD":"95.438","TLE_LINE1":"1 51106U 22005C   22344.85552392 -.00000950  00000-0 -41570-4 0  9993","TLE_LINE2":"2 51106  53.2163 208.0350 0003598  38.3012 321.8235 15.08834880 51112","SITE":"AFETR","OBJECT_NAME":"STARLINK-3176","OBJECT_ID":"2022-005C","COUNTRY_CODE":"US","EPOCH":"2022-12-10T20:31:57.266688","ELEMENT_SET_NO":"999","APOAPSIS":"542.250","MEAN_MOTION_DDOT":"0.0000000000000","RCS_SIZE":"LARGE","OBJECT_TYPE":"PAYLOAD","EPHEMERIS_TYPE":"0","CENTER_NAME":"EARTH"},{"ECCENTRICITY":"0.00027410","ARG_OF_PERICENTER":"23.3919","TLE_LINE1":"1 51107U 22005D   22344.06067871 -.00009855  00000-0 -60222-3 0  9997","PERIOD":"95.439","PERIAPSIS":"537.913","MEAN_ANOMALY":"336.7197","REV_AT_EPOCH":"4975","NORAD_CAT_ID":"51107","FILE":"3688140","MEAN_MOTION_DOT":"-0.00009855","MEAN_ELEMENT_THEORY":"SGP4","TIME_SYSTEM":"UTC","LAUNCH_DATE":"2022-01-19","SEMIMAJOR_AXIS":"6917.944","MEAN_MOTION":"15.08819143","RA_OF_ASC_NODE":"221.6247","REF_FRAME":"TEME","GP_ID":"219933429","CLASSIFICATION_TYPE":"U","BSTAR":"-0.00060222000000","INCLINATION":"53.2131","DECAY_DATE":null,"EPHEMERIS_TYPE":"0","CENTER_NAME":"EARTH","RCS_SIZE":"LARGE","OBJECT_TYPE":"PAYLOAD","COUNTRY_CODE":"US","EPOCH":"2022-12-10T01:27:22.640544","ELEMENT_SET_NO":"999","MEAN_MOTION_DDOT":"0.0000000000000","APOAPSIS":"541.705","TLE_LINE2":"2 51107  53.2131 221.6247 0002741  23.3919 336.7197 15.08819143 49757","OBJECT_ID":"2022-005D","SITE":"AFETR","OBJECT_NAME":"STARLINK-3368"},{"ARG_OF_PERICENTER":"43.5900","TLE_LINE1":"1 51108U 22005E   22344.80768859 -.00001660  00000-0 -86170-4 0  9991","PERIOD":"95.438","ECCENTRICITY":"0.00030630","FILE":"3688965","MEAN_MOTION_DOT":"-0.00001660","NORAD_CAT_ID":"51108","MEAN_ELEMENT_THEORY":"SGP4","PERIAPSIS":"537.653","MEAN_ANOMALY":"316.5334","REV_AT_EPOCH":"5000","MEAN_MOTION":"15.08831449","RA_OF_ASC_NODE":"208.2719","REF_FRAME":"TEME","TIME_SYSTEM":"UTC","LAUNCH_DATE":"2022-01-19","SEMIMAJOR_AXIS":"6917.907","GP_ID":"219977264","CLASSIFICATION_TYPE":"U","BSTAR":"-0.00008617000000","INCLINATION":"53.2167","DECAY_DATE":null,"CENTER_NAME":"EARTH","EPHEMERIS_TYPE":"0","OBJECT_TYPE":"PAYLOAD","RCS_SIZE":"LARGE","ELEMENT_SET_NO":"999","MEAN_MOTION_DDOT":"0.0000000000000","APOAPSIS":"541.890","COUNTRY_CODE":"US","EPOCH":"2022-12-10T19:23:04.294176","OBJECT_ID":"2022-005E","SITE":"AFETR","OBJECT_NAME":"STARLINK-3362","TLE_LINE2":"2 51108  53.2167 208.2719 0003063  43.5900 316.5334 15.08831449 50006"},{"ARG_OF_PERICENTER":"43.0633","TLE_LINE1":"1 51109U 22005F   22344.83071744 -.00001174  00000-0 -55615-4 0  9995","PERIOD":"95.437","ECCENTRICITY":"0.00028180","FILE":"3688965","MEAN_MOTION_DOT":"-0.00001174","NORAD_CAT_ID":"51109","MEAN_ELEMENT_THEORY":"SGP4","PERIAPSIS":"537.785","MEAN_ANOMALY":"317.0579","REV_AT_EPOCH":"4977","RA_OF_ASC_NODE":"208.1485","MEAN_MOTION":"15.08843732","REF_FRAME":"TEME","TIME_SYSTEM":"UTC","LAUNCH_DATE":"2022-01-19","SEMIMAJOR_AXIS":"6917.869","GP_ID":"219978516","CLASSIFICATION_TYPE":"U","BSTAR":"-0.00005561500000","INCLINATION":"53.2170","DECAY_DATE":null,"CENTER_NAME":"EARTH","EPHEMERIS_TYPE":"0","OBJECT_TYPE":"PAYLOAD","RCS_SIZE":"LARGE","ELEMENT_SET_NO":"999","MEAN_MOTION_DDOT":"0.0000000000000","APOAPSIS":"541.683","COUNTRY_CODE":"US","EPOCH":"2022-12-10T19:56:13.986816","OBJECT_ID":"2022-005F","SITE":"AFETR","OBJECT_NAME":"STARLINK-3358","TLE_LINE2":"2 51109  53.2170 208.1485 0002818  43.0633 317.0579 15.08843732 49772"},{"MEAN_ANOMALY":"335.8535","PERIAPSIS":"537.689","REV_AT_EPOCH":"5000","MEAN_MOTION_DOT":"0.00000753","FILE":"3688965","NORAD_CAT_ID":"51110","MEAN_ELEMENT_THEORY":"SGP4","ECCENTRICITY":"0.00029820","ARG_OF_PERICENTER":"24.2598","PERIOD":"95.438","TLE_LINE1":"1 51110U 22005G   22344.80032768  .00000753  00000-0  65426-4 0  9998","GP_ID":"219978767","BSTAR":"0.00006542600000","CLASSIFICATION_TYPE":"U","INCLINATION":"53.2158","DECAY_DATE":null,"TIME_SYSTEM":"UTC","LAUNCH_DATE":"2022-01-19","SEMIMAJOR_AXIS":"6917.887","MEAN_MOTION":"15.08837909","RA_OF_ASC_NODE":"208.3100","REF_FRAME":"TEME","RCS_SIZE":"LARGE","OBJECT_TYPE":"PAYLOAD","EPHEMERIS_TYPE":"0","CENTER_NAME":"EARTH","TLE_LINE2":"2 51110  53.2158 208.3100 0002982  24.2598 335.8535 15.08837909 50006","OBJECT_ID":"2022-005G","SITE":"AFETR","OBJECT_NAME":"STARLINK-3344","COUNTRY_CODE":"US","EPOCH":"2022-12-10T19:12:28.311552","ELEMENT_SET_NO":"999","MEAN_MOTION_DDOT":"0.0000000000000","APOAPSIS":"541.815"}];
